NORAD_CAT_ID,OBJECT_NAME,OBJECT_TYPE,EPOCH,MEAN_MOTION,ECCENTRICITY,INCLINATION,RA_OF_ASC_NODE,ARG_OF_PERICENTER,MEAN_ANOMALY,BSTAR,MEAN_MOTION_DOT,MEAN_MOTION_DDOT,TLE_LINE0,TLE_LINE1,TLE_LINE2,SEMIMAJOR_AXIS,PERIOD,APOGEE,PERIGEE,DECAYED
49131.0,STARLINK-3096,PAYLOAD,2023-03-04 06:54:17,14.98335425,0.000325,70.0016,151.4845,265.6341,94.4447,-0.000161,-2.014e-05,0.0,0 STARLINK-3096,1 49131U 21082B   23063.28770206 -.00002014  00000-0 -16100-3 0  9997,2 49131  70.0016 151.4845 0003250 265.6341  94.4447 14.98335425 81981,6950.176,96.107,574.3,569.782,0.0
49131.0,STARLINK-3096,PAYLOAD,2023-03-04 11:42:41,14.98334163,0.0003221,70.002,150.98,265.2379,94.8412,0.0018774,0.00022382,0.0,0 STARLINK-3096,1 49131U 21082B   23063.48798539  .00022382  00000-0  18774-2 0  9994,2 49131  70.0020 150.9800 0003221 265.2379  94.8412 14.98334163 82015,6950.18,96.107,574.284,569.806,0.0
49131.0,STARLINK-3096,PAYLOAD,2023-03-04 18:07:14,14.98343227,0.0003177,70.0017,150.3063,267.7231,92.3564,0.0029476,0.00035267,0.0,0 STARLINK-3096,1 49131U 21082B   23063.75502532  .00035267  00000-0  29476-2 0  9997,2 49131  70.0017 150.3063 0003177 267.7231  92.3564 14.98343227 82056,6950.152,96.106,574.225,569.809,0.0
49131.0,STARLINK-3096,PAYLOAD,2023-03-05 08:32:27,14.98337717,0.0002928,70.0022,148.7913,273.1397,86.9427,0.0014407,0.00017143,0.0,0 STARLINK-3096,1 49131U 21082B   23064.35586993  .00017143  00000-0  14407-2 0  9998,2 49131  70.0022 148.7913 0002928 273.1397  86.9427 14.98337717 82148,6950.169,96.107,574.069,569.999,0.0
49131.0,STARLINK-3096,PAYLOAD,2023-03-05 22:57:39,14.98349468,0.0003164,70.0027,147.278,270.8628,89.2169,0.0015431,0.00018377,0.0,0 STARLINK-3096,1 49131U 21082B   23064.95670638  .00018377  00000-0  15431-2 0  9992,2 49131  70.0027 147.2780 0003164 270.8628  89.2169 14.98349468 82238,6950.133,96.106,574.197,569.799,0.0
49131.0,STARLINK-3096,PAYLOAD,2023-03-06 11:46:43,14.98346107,0.0002948,70.0017,145.9295,265.6269,94.4553,0.00064433,7.607e-05,0.0,0 STARLINK-3096,1 49131U 21082B   23065.49078280  .00007607  00000-0  64433-3 0  9998,2 49131  70.0017 145.9295 0002948 265.6269  94.4553 14.98346107 82316,6950.143,96.106,574.057,569.959,0.0
49131.0,STARLINK-3096,PAYLOAD,2023-03-06 16:35:07,14.98355976,0.0003012,70.0023,145.4265,259.9961,100.0859,0.0008471,0.00010036,0.0,0 STARLINK-3096,1 49131U 21082B   23065.69105615  .00010036  00000-0  84710-3 0  9993,2 49131  70.0023 145.4265 0003012 259.9961 100.0859 14.98355976 82343,6950.113,96.105,574.071,569.884,0.0
49131.0,STARLINK-3096,PAYLOAD,2023-03-07 03:48:04,14.98339226,0.0002485,70.0027,144.2467,270.5901,89.4974,0.00019575,2.244e-05,0.0,0 STARLINK-3096,1 49131U 21082B   23066.15838060  .00002244  00000-0  19575-3 0  9991,2 49131  70.0027 144.2467 0002485 270.5901  89.4974 14.98339226 82410,6950.164,96.106,573.756,570.302,0.0
49131.0,STARLINK-3096,PAYLOAD,2023-03-07 08:36:28,14.98332407,0.0002898,70.0014,143.7403,269.6177,90.465,-8.1671e-05,-1.067e-05,0.0,0 STARLINK-3096,1 49131U 21082B   23066.35866224 -.00001067  00000-0 -81671-4 0  9997,2 49131  70.0014 143.7403 0002898 269.6177  90.4650 14.98332407 82442,6950.185,96.107,574.065,570.036,0.0
49131.0,STARLINK-3096,PAYLOAD,2023-03-07 16:37:08,14.98338564,0.0002616,70.002,142.9001,264.829,95.257,0.00025482,2.949e-05,0.0,0 STARLINK-3096,1 49131U 21082B   23066.69246216  .00002949  00000-0  25482-3 0  9992,2 49131  70.0020 142.9001 0002616 264.8290  95.2570 14.98338564 82494,6950.166,96.106,573.85,570.213,0.0
49131.0,STARLINK-3096,PAYLOAD,2023-03-08 10:14:37,14.98330531,0.0002717,70.0018,141.0495,274.9089,85.176,1.6938e-05,1.09e-06,0.0,0 STARLINK-3096,1 49131U 21082B   23067.42682618  .00000109  00000-0  16938-4 0  9997,2 49131  70.0018 141.0495 0002717 274.9089  85.1760 14.98330531 82606,6950.191,96.107,573.945,570.168,0.0
49131.0,STARLINK-3096,PAYLOAD,2023-03-08 21:27:33,14.9834123,0.0002444,70.0021,139.8705,277.7293,82.3588,9.1935e-05,1.004e-05,0.0,0 STARLINK-3096,1 49131U 21082B   23067.89414195  .00001004  00000-0  91935-4 0  9996,2 49131  70.0021 139.8705 0002444 277.7293  82.3588 14.98341230 82676,6950.158,96.106,573.722,570.325,0.0
49131.0,STARLINK-3096,PAYLOAD,2023-03-09 07:04:22,14.9833238,0.0002733,70.0016,138.8609,275.8593,84.2254,0.00030103,3.501e-05,0.0,0 STARLINK-3096,1 49131U 21082B   23068.29470471  .00003501  00000-0  30103-3 0  9993,2 49131  70.0016 138.8609 0002733 275.8593  84.2254 14.98332380 82739,6950.186,96.107,573.95,570.151,0.0
49131.0,STARLINK-3096,PAYLOAD,2023-03-09 15:05:02,14.98344164,0.0002742,70.0017,138.0195,271.6018,88.4826,0.00040634,4.76e-05,0.0,0 STARLINK-3096,1 49131U 21082B   23068.62849780  .00004760  00000-0  40634-3 0  9991,2 49131  70.0017 138.0195 0002742 271.6018  88.4826 14.98344164 82787,6950.149,96.106,573.92,570.108,0.0
49131.0,STARLINK-3096,PAYLOAD,2023-03-09 21:29:34,14.98344235,0.0002789,70.001,137.346,274.7427,85.3414,0.00027228,3.158e-05,0.0,0 STARLINK-3096,1 49131U 21082B   23068.89553652  .00003158  00000-0  27228-3 0  9994,2 49131  70.0010 137.3460 0002789 274.7427  85.3414 14.98344235 82829,6950.149,96.106,573.952,570.075,0.0
49131.0,STARLINK-3096,PAYLOAD,2023-03-10 05:30:14,14.98341467,0.0002432,70.0017,136.5055,265.3828,94.7053,0.00032248,3.758e-05,0.0,0 STARLINK-3096,1 49131U 21082B   23069.22933744  .00003758  00000-0  32248-3 0  9990,2 49131  70.0017 136.5055 0002432 265.3828  94.7053 14.98341467 82875,6950.157,96.106,573.713,570.332,0.0
49131.0,STARLINK-3096,PAYLOAD,2023-03-10 21:31:35,14.98336881,0.0002701,70.0011,134.8221,267.7513,92.3337,7.1895e-05,7.65e-06,0.0,0 STARLINK-3096,1 49131U 21082B   23069.89693532  .00000765  00000-0  71895-4 0  9998,2 49131  70.0011 134.8221 0002701 267.7513  92.3337 14.98336881 82975,6950.172,96.107,573.914,570.159,0.0
49131.0,STARLINK-3096,PAYLOAD,2023-03-11 05:32:16,14.98316549,0.000288,70.0016,133.9806,264.5215,95.5616,-0.00033749,-4.116e-05,0.0,0 STARLINK-3096,1 49131U 21082B   23070.23074623 -.00004116  00000-0 -33749-3 0  9993,2 49131  70.0016 133.9806 0002880 264.5215  95.5616 14.98316549 83022,6950.234,96.108,574.101,570.098,0.0
49131.0,STARLINK-3096,PAYLOAD,2023-03-11 10:20:40,14.98319033,0.0002898,70.0007,133.4758,262.5618,97.5211,-0.00028768,-3.523e-05,0.0,0 STARLINK-3096,1 49131U 21082B   23070.43102572 -.00003523  00000-0 -28768-3 0  9996,2 49131  70.0007 133.4758 0002898 262.5618  97.5211 14.98319033 83054,6950.227,96.108,574.106,570.078,0.0
49131.0,STARLINK-3096,PAYLOAD,2023-03-11 16:45:12,14.98328134,0.0002898,70.0003,132.8015,264.4449,95.638,-6.1366e-05,-8.25e-06,0.0,0 STARLINK-3096,1 49131U 21082B   23070.69806210 -.00000825  00000-0 -61366-4 0  9998,2 49131  70.0003 132.8015 0002898 264.4449  95.6380 14.98328134 83094,6950.199,96.107,574.078,570.049,0.0
49131.0,STARLINK-3096,PAYLOAD,2023-03-12 05:34:17,14.98323286,0.0002998,70.0006,131.4542,267.2855,92.7961,1.3572e-05,6.9e-07,0.0,0 STARLINK-3096,1 49131U 21082B   23071.23214700  .00000069  00000-0  13572-4 0  9990,2 49131  70.0006 131.4542 0002998 267.2855  92.7961 14.98323286 83175,6950.214,96.107,574.162,569.995,0.0
49131.0,STARLINK-3096,PAYLOAD,2023-03-12 13:34:57,14.98329528,0.0002741,70.0007,130.6127,261.5846,98.5002,0.00015025,1.7e-05,0.0,0 STARLINK-3096,1 49131U 21082B   23071.56594543  .00001700  00000-0  15025-3 0  9999,2 49131  70.0007 130.6127 0002741 261.5846  98.5002 14.98329528 83220,6950.194,96.107,573.964,570.154,0.0
49131.0,STARLINK-3096,PAYLOAD,2023-03-13 05:36:18,14.98328457,0.0002991,70.0005,128.9304,263.7442,96.3376,0.00046571,5.468e-05,0.0,0 STARLINK-3096,1 49131U 21082B   23072.23354791  .00005468  00000-0  46571-3 0  9998,2 49131  70.0005 128.9304 0002991 263.7442  96.3376 14.98328457 83329,6950.198,96.107,574.141,569.984,0.0
49131.0,STARLINK-3096,PAYLOAD,2023-03-14 05:38:19,14.98339251,0.0002691,70.0029,126.4074,264.3357,95.7495,-0.00021962,-2.713e-05,0.0,0 STARLINK-3096,1 49131U 21082B   23073.23494256 -.00002713  00000-0 -21962-3 0  9999,2 49131  70.0029 126.4074 0002691 264.3357  95.7495 14.98339251 83476,6950.164,96.106,573.9,570.159,0.0
49131.0,STARLINK-3096,PAYLOAD,2023-03-14 13:38:59,14.9833103,0.0002603,69.9998,125.5637,267.6369,92.4492,0.00012406,1.388e-05,0.0,0 STARLINK-3096,1 49131U 21082B   23073.56874570  .00001388  00000-0  12406-3 0  9994,2 49131  69.9998 125.5637 0002603 267.6369  92.4492 14.98331030 83529,6950.19,96.107,573.864,570.246,0.0
49131.0,STARLINK-3096,PAYLOAD,2023-03-14 20:03:31,14.98338305,0.0002989,69.999,124.8894,263.6138,96.4681,9.9193e-05,1.091e-05,0.0,0 STARLINK-3096,1 49131U 21082B   23073.83578092  .00001091  00000-0  99193-4 0  9994,2 49131  69.9990 124.8894 0002989 263.6138  96.4681 14.98338305 83565,6950.167,96.106,574.11,569.955,0.0
49131.0,STARLINK-3096,PAYLOAD,2023-03-15 12:04:51,14.98347831,0.0002852,69.9992,123.2061,256.0723,104.0119,0.00017477,1.994e-05,0.0,0 STARLINK-3096,1 49131U 21082B   23074.50336976  .00001994  00000-0  17477-3 0  9998,2 49131  69.9992 123.2061 0002852 256.0723 104.0119 14.98347831 83668,6950.138,96.106,573.985,570.021,0.0
49131.0,STARLINK-3096,PAYLOAD,2023-03-15 20:05:31,14.98335493,0.0002984,69.999,122.365,264.9649,95.117,0.00017398,1.984e-05,0.0,0 STARLINK-3096,1 49131U 21082B   23074.83717494  .00001984  00000-0  17398-3 0  9993,2 49131  69.9990 122.3650 0002984 264.9649  95.1170 14.98335493 83715,6950.176,96.107,574.115,569.967,0.0
49131.0,STARLINK-3096,PAYLOAD,2023-03-16 05:42:20,14.98330063,0.0002821,69.9987,121.3537,263.2577,96.8261,4.2798e-05,4.18e-06,0.0,0 STARLINK-3096,1 49131U 21082B   23075.23774028  .00000418  00000-0  42798-4 0  9998,2 49131  69.9987 121.3537 0002821 263.2577  96.8261 14.98330063 83779,6950.193,96.107,574.018,570.097,0.0
49131.0,STARLINK-3096,PAYLOAD,2023-03-16 13:43:01,14.983261,0.0002656,69.9997,120.5136,260.7655,99.3204,-6.5707e-06,-1.71e-06,0.0,0 STARLINK-3096,1 49131U 21082B   23075.57154327 -.00000171  00000-0 -65707-5 0  9993,2 49131  69.9997 120.5136 0002656 260.7655  99.3204 14.98326100 83829,6950.205,96.107,573.916,570.224,0.0
